{
  "type": "FeatureCollection",
  "features": [
    {
      "type": "Feature",
      "properties": {
        "norad_id": 36441,
        "name": "COSMOS 2251 DEB",
        "group": "cosmos-2251-debris",
        "lat": 3.0219225204487516,
        "lon": -1.2008076660514948,
        "alt_km": 554.0749512893572,
        "timestamp": "2025-12-08T19:31:49.204262+00:00",
        "meta_object_name": "COSMOS 2251 DEB",
        "meta_object_id": "1993-036BAQ",
        "meta_epoch": "2025-12-04T18:18:25.005024",
        "meta_mean_motion": 15.06603971,
        "meta_eccentricity": 0.01084902,
        "meta_inclination": 73.8352,
        "meta_ra_of_asc_node": 6.3404,
        "meta_arg_of_pericenter": 107.4279,
        "meta_mean_anomaly": 253.8807,
        "meta_ephemeris_type": 0,
        "meta_classification_type": "U",
        "meta_norad_cat_id": 36441,
        "meta_element_set_no": 999,
        "meta_rev_at_epoch": 86845,
        "meta_bstar": 0.00090032635,
        "meta_mean_motion_dot": 0.00015248,
        "meta_mean_motion_ddot": 0,
        "tle_line1": "1 36441U 93036BAQ 25338.76278941  .00015248  00000+0  90033-3 0  9991",
        "tle_line2": "2 36441  73.8352   6.3404 0108490 107.4279 253.8807 15.06603971868459"
      },
      "geometry": {
        "type": "Point",
        "coordinates": [
          -1.2008076660514948,
          3.0219225204487516
        ]
      }
    },
    {
      "type": "Feature",
      "properties": {
        "norad_id": 36442,
        "name": "COSMOS 2251 DEB",
        "group": "cosmos-2251-debris",
        "lat": -15.44523882890972,
        "lon": -127.78556055422922,
        "alt_km": 490.0714493176838,
        "timestamp": "2025-12-08T19:31:49.204271+00:00",
        "meta_object_name": "COSMOS 2251 DEB",
        "meta_object_id": "1993-036BAR",
        "meta_epoch": "2025-12-06T22:39:26.591328",
        "meta_mean_motion": 15.26969536,
        "meta_eccentricity": 0.00090287,
        "meta_inclination": 73.9541,
        "meta_ra_of_asc_node": 51.6347,
        "meta_arg_of_pericenter": 319.5798,
        "meta_mean_anomaly": 40.473,
        "meta_ephemeris_type": 0,
        "meta_classification_type": "U",
        "meta_norad_cat_id": 36442,
        "meta_element_set_no": 999,
        "meta_rev_at_epoch": 85827,
        "meta_bstar": 0.0074976763,
        "meta_mean_motion_dot": 0.00204314,
        "meta_mean_motion_ddot": 0,
        "tle_line1": "1 36442U 93036BAR 25340.94405777  .00204314  00000+0  74977-2 0  9996",
        "tle_line2": "2 36442  73.9541  51.6347 0009028 319.5798  40.4730 15.26969536858277"
      },
      "geometry": {
        "type": "Point",
        "coordinates": [
          -127.78556055422922,
          -15.44523882890972
        ]
      }
    },
    {
      "type": "Feature",
      "properties": {
        "norad_id": 36451,
        "name": "COSMOS 2251 DEB",
        "group": "cosmos-2251-debris",
        "lat": -12.506979313102594,
        "lon": 165.93265789133787,
        "alt_km": 713.2021172984269,
        "timestamp": "2025-12-08T19:31:49.204280+00:00",
        "meta_object_name": "COSMOS 2251 DEB",
        "meta_object_id": "1993-036BBA",
        "meta_epoch": "2025-12-06T07:23:52.845792",
        "meta_mean_motion": 14.18714463,
        "meta_eccentricity": 0.01842542,
        "meta_inclination": 73.9539,
        "meta_ra_of_asc_node": 346.7676,
        "meta_arg_of_pericenter": 172.6411,
        "meta_mean_anomaly": 187.7508,
        "meta_ephemeris_type": 0,
        "meta_classification_type": "U",
        "meta_norad_cat_id": 36451,
        "meta_element_set_no": 999,
        "meta_rev_at_epoch": 84134,
        "meta_bstar": 0.0013122334,
        "meta_mean_motion_dot": 3.2e-05,
        "meta_mean_motion_ddot": 0,
        "tle_line1": "1 36451U 93036BBA 25340.30825053  .00003200  00000+0  13122-2 0  9995",
        "tle_line2": "2 36451  73.9539 346.7676 0184254 172.6411 187.7508 14.18714463841347"
      },
      "geometry": {
        "type": "Point",
        "coordinates": [
          165.93265789133787,
          -12.506979313102594
        ]
      }
    },
    {
      "type": "Feature",
      "properties": {
        "norad_id": 36453,
        "name": "COSMOS 2251 DEB",
        "group": "cosmos-2251-debris",
        "lat": -31.372172911727006,
        "lon": 149.71663358909368,
        "alt_km": 728.8547867105744,
        "timestamp": "2025-12-08T19:31:49.204289+00:00",
        "meta_object_name": "COSMOS 2251 DEB",
        "meta_object_id": "1993-036BBC",
        "meta_epoch": "2025-12-05T22:56:55.070880",
        "meta_mean_motion": 14.52531816,
        "meta_eccentricity": 0.00702998,
        "meta_inclination": 73.9232,
        "meta_ra_of_asc_node": 165.2675,
        "meta_arg_of_pericenter": 70.5371,
        "meta_mean_anomaly": 80.8599,
        "meta_ephemeris_type": 0,
        "meta_classification_type": "U",
        "meta_norad_cat_id": 36453,
        "meta_element_set_no": 999,
        "meta_rev_at_epoch": 84369,
        "meta_bstar": 0.0014781095,
        "meta_mean_motion_dot": 6.214e-05,
        "meta_mean_motion_ddot": 0,
        "tle_line1": "1 36453U 93036BBC 25339.95619295  .00006214  00000+0  14781-2 0  9995",
        "tle_line2": "2 36453  73.9232 165.2675 0070299  70.5371  80.8599 14.52531816843696"
      },
      "geometry": {
        "type": "Point",
        "coordinates": [
          149.71663358909368,
          -31.372172911727006
        ]
      }
    },
    {
      "type": "Feature",
      "properties": {
        "norad_id": 36459,
        "name": "COSMOS 2251 DEB",
        "group": "cosmos-2251-debris",
        "lat": -69.48420123408377,
        "lon": -123.25396427886449,
        "alt_km": 883.5457364929935,
        "timestamp": "2025-12-08T19:31:49.204305+00:00",
        "meta_object_name": "COSMOS 2251 DEB",
        "meta_object_id": "1993-036BBJ",
        "meta_epoch": "2025-11-27T21:25:14.011392",
        "meta_mean_motion": 14.2626117,
        "meta_eccentricity": 0.0114133,
        "meta_inclination": 74.0487,
        "meta_ra_of_asc_node": 26.6161,
        "meta_arg_of_pericenter": 126.4072,
        "meta_mean_anomaly": 234.7668,
        "meta_ephemeris_type": 0,
        "meta_classification_type": "U",
        "meta_norad_cat_id": 36459,
        "meta_element_set_no": 999,
        "meta_rev_at_epoch": 7670,
        "meta_bstar": 0.0017749,
        "meta_mean_motion_dot": 4.537e-05,
        "meta_mean_motion_ddot": 0,
        "tle_line1": "1 36459U 93036BBJ 25331.89252328  .00004537  00000+0  17749-2 0  9999",
        "tle_line2": "2 36459  74.0487  26.6161 0114133 126.4072 234.7668 14.26261170 76702"
      },
      "geometry": {
        "type": "Point",
        "coordinates": [
          -123.25396427886449,
          -69.48420123408377
        ]
      }
    },
    {
      "type": "Feature",
      "properties": {
        "norad_id": 36470,
        "name": "COSMOS 2251 DEB",
        "group": "cosmos-2251-debris",
        "lat": -52.87980511810631,
        "lon": 105.0945949002232,
        "alt_km": 566.5593703608774,
        "timestamp": "2025-12-08T19:31:49.204314+00:00",
        "meta_object_name": "COSMOS 2251 DEB",
        "meta_object_id": "1993-036BBV",
        "meta_epoch": "2025-12-02T03:03:18.136800",
        "meta_mean_motion": 15.05586615,
        "meta_eccentricity": 0.00218493,
        "meta_inclination": 73.8455,
        "meta_ra_of_asc_node": 276.4446,
        "meta_arg_of_pericenter": 104.1241,
        "meta_mean_anomaly": 256.2378,
        "meta_ephemeris_type": 0,
        "meta_classification_type": "U",
        "meta_norad_cat_id": 36470,
        "meta_element_set_no": 999,
        "meta_rev_at_epoch": 65934,
        "meta_bstar": 0.0040110233,
        "meta_mean_motion_dot": 0.00058582,
        "meta_mean_motion_ddot": 0,
        "tle_line1": "1 36470U 93036BBV 25336.12729325  .00058582  00000+0  40110-2 0  9996",
        "tle_line2": "2 36470  73.8455 276.4446 0021849 104.1241 256.2378 15.05586615659346"
      },
      "geometry": {
        "type": "Point",
        "coordinates": [
          105.0945949002232,
          -52.87980511810631
        ]
      }
    },
    {
      "type": "Feature",
      "properties": {
        "norad_id": 36528,
        "name": "COSMOS 2251 DEB",
        "group": "cosmos-2251-debris",
        "lat": -46.66077854043687,
        "lon": 134.68952203948524,
        "alt_km": 814.7698639810287,
        "timestamp": "2025-12-08T19:31:49.204323+00:00",
        "meta_object_name": "COSMOS 2251 DEB",
        "meta_object_id": "1993-036BCN",
        "meta_epoch": "2025-12-07T18:35:16.209888",
        "meta_mean_motion": 14.3059773,
        "meta_eccentricity": 0.00852102,
        "meta_inclination": 74.0157,
        "meta_ra_of_asc_node": 154.2656,
        "meta_arg_of_pericenter": 204.8135,
        "meta_mean_anomaly": 154.8907,
        "meta_ephemeris_type": 0,
        "meta_classification_type": "U",
        "meta_norad_cat_id": 36528,
        "meta_element_set_no": 999,
        "meta_rev_at_epoch": 64356,
        "meta_bstar": 0.0018462235,
        "meta_mean_motion_dot": 4.991e-05,
        "meta_mean_motion_ddot": 0,
        "tle_line1": "1 36528U 93036BCN 25341.77449317  .00004991  00000+0  18462-2 0  9997",
        "tle_line2": "2 36528  74.0157 154.2656 0085210 204.8135 154.8907 14.30597730643565"
      },
      "geometry": {
        "type": "Point",
        "coordinates": [
          134.68952203948524,
          -46.66077854043687
        ]
      }
    }
  ]
}